<?xml version="1.0" encoding="UTF-8"?>
<ndm xmlns:xsi="http://www.w3.org/2001/XMLSchema-instance" xsi:noNamespaceSchemaLocation="https://sanaregistry.org/r/ndmxml_unqualified/ndmxml-2.0.0-master-2.0.xsd">
<omm id="CCSDS_OMM_VERS" version="2.0">
<header><CREATION_DATE/><ORIGINATOR/></header><body><segment><metadata><OBJECT_NAME>ONEWEB-0628</OBJECT_NAME><OBJECT_ID>2023-004AF</OBJECT_ID><CENTER_NAME>EARTH</CENTER_NAME><REF_FRAME>TEME</REF_FRAME><TIME_SYSTEM>UTC</TIME_SYSTEM><MEAN_ELEMENT_THEORY>SGP4</MEAN_ELEMENT_THEORY></metadata><data><meanElements><EPOCH>2024-12-27T07:31:00.137856</EPOCH><MEAN_MOTION>13.12446424</MEAN_MOTION><ECCENTRICITY>.0002312</ECCENTRICITY><INCLINATION>87.8888</INCLINATION><RA_OF_ASC_NODE>97.5448</RA_OF_ASC_NODE><ARG_OF_PERICENTER>91.0158</ARG_OF_PERICENTER><MEAN_ANOMALY>269.1236</MEAN_ANOMALY></meanElements><tleParameters><EPHEMERIS_TYPE>0</EPHEMERIS_TYPE><CLASSIFICATION_TYPE>U</CLASSIFICATION_TYPE><NORAD_CAT_ID>55169</NORAD_CAT_ID><ELEMENT_SET_NO>999</ELEMENT_SET_NO><REV_AT_EPOCH>9761</REV_AT_EPOCH><BSTAR>-.49054E-3</BSTAR><MEAN_MOTION_DOT>-.164E-5</MEAN_MOTION_DOT><MEAN_MOTION_DDOT>0</MEAN_MOTION_DDOT></tleParameters></data></segment></body></omm>
<omm id="CCSDS_OMM_VERS" version="2.0">
<header><CREATION_DATE/><ORIGINATOR/></header><body><segment><metadata><OBJECT_NAME>ONEWEB-0629</OBJECT_NAME><OBJECT_ID>2023-004AG</OBJECT_ID><CENTER_NAME>EARTH</CENTER_NAME><REF_FRAME>TEME</REF_FRAME><TIME_SYSTEM>UTC</TIME_SYSTEM><MEAN_ELEMENT_THEORY>SGP4</MEAN_ELEMENT_THEORY></metadata><data><meanElements><EPOCH>2024-12-27T13:09:53.251200</EPOCH><MEAN_MOTION>13.17651051</MEAN_MOTION><ECCENTRICITY>.0001641</ECCENTRICITY><INCLINATION>87.9104</INCLINATION><RA_OF_ASC_NODE>112.7770</RA_OF_ASC_NODE><ARG_OF_PERICENTER>88.9567</ARG_OF_PERICENTER><MEAN_ANOMALY>271.1752</MEAN_ANOMALY></meanElements><tleParameters><EPHEMERIS_TYPE>0</EPHEMERIS_TYPE><CLASSIFICATION_TYPE>U</CLASSIFICATION_TYPE><NORAD_CAT_ID>55170</NORAD_CAT_ID><ELEMENT_SET_NO>999</ELEMENT_SET_NO><REV_AT_EPOCH>9691</REV_AT_EPOCH><BSTAR>.15187E-3</BSTAR><MEAN_MOTION_DOT>.72E-6</MEAN_MOTION_DOT><MEAN_MOTION_DDOT>0</MEAN_MOTION_DDOT></tleParameters></data></segment></body></omm>
<omm id="CCSDS_OMM_VERS" version="2.0">
<header><CREATION_DATE/><ORIGINATOR/></header><body><segment><metadata><OBJECT_NAME>ONEWEB-0631</OBJECT_NAME><OBJECT_ID>2023-004AH</OBJECT_ID><CENTER_NAME>EARTH</CENTER_NAME><REF_FRAME>TEME</REF_FRAME><TIME_SYSTEM>UTC</TIME_SYSTEM><MEAN_ELEMENT_THEORY>SGP4</MEAN_ELEMENT_THEORY></metadata><data><meanElements><EPOCH>2024-12-27T12:03:28.219680</EPOCH><MEAN_MOTION>13.18684994</MEAN_MOTION><ECCENTRICITY>.000224</ECCENTRICITY><INCLINATION>87.9114</INCLINATION><RA_OF_ASC_NODE>82.2025</RA_OF_ASC_NODE><ARG_OF_PERICENTER>115.4878</ARG_OF_PERICENTER><MEAN_ANOMALY>244.6486</MEAN_ANOMALY></meanElements><tleParameters><EPHEMERIS_TYPE>0</EPHEMERIS_TYPE><CLASSIFICATION_TYPE>U</CLASSIFICATION_TYPE><NORAD_CAT_ID>55171</NORAD_CAT_ID><ELEMENT_SET_NO>999</ELEMENT_SET_NO><REV_AT_EPOCH>9894</REV_AT_EPOCH><BSTAR>.30994E-4</BSTAR><MEAN_MOTION_DOT>.25E-6</MEAN_MOTION_DOT><MEAN_MOTION_DDOT>0</MEAN_MOTION_DDOT></tleParameters></data></segment></body></omm>
<omm id="CCSDS_OMM_VERS" version="2.0">
<header><CREATION_DATE/><ORIGINATOR/></header><body><segment><metadata><OBJECT_NAME>ONEWEB-0709</OBJECT_NAME><OBJECT_ID>2023-004AJ</OBJECT_ID><CENTER_NAME>EARTH</CENTER_NAME><REF_FRAME>TEME</REF_FRAME><TIME_SYSTEM>UTC</TIME_SYSTEM><MEAN_ELEMENT_THEORY>SGP4</MEAN_ELEMENT_THEORY></metadata><data><meanElements><EPOCH>2024-12-27T14:37:10.737120</EPOCH><MEAN_MOTION>13.11416090</MEAN_MOTION><ECCENTRICITY>.000185</ECCENTRICITY><INCLINATION>87.8903</INCLINATION><RA_OF_ASC_NODE>128.0302</RA_OF_ASC_NODE><ARG_OF_PERICENTER>136.4180</ARG_OF_PERICENTER><MEAN_ANOMALY>223.7094</MEAN_ANOMALY></meanElements><tleParameters><EPHEMERIS_TYPE>0</EPHEMERIS_TYPE><CLASSIFICATION_TYPE>U</CLASSIFICATION_TYPE><NORAD_CAT_ID>55172</NORAD_CAT_ID><ELEMENT_SET_NO>999</ELEMENT_SET_NO><REV_AT_EPOCH>9554</REV_AT_EPOCH><BSTAR>-.11857E-2</BSTAR><MEAN_MOTION_DOT>-.408E-5</MEAN_MOTION_DOT><MEAN_MOTION_DDOT>0</MEAN_MOTION_DDOT></tleParameters></data></segment></body></omm>
<omm id="CCSDS_OMM_VERS" version="2.0">
<header><CREATION_DATE/><ORIGINATOR/></header><body><segment><metadata><OBJECT_NAME>ONEWEB-0710</OBJECT_NAME><OBJECT_ID>2023-004AK</OBJECT_ID><CENTER_NAME>EARTH</CENTER_NAME><REF_FRAME>TEME</REF_FRAME><TIME_SYSTEM>UTC</TIME_SYSTEM><MEAN_ELEMENT_THEORY>SGP4</MEAN_ELEMENT_THEORY></metadata><data><meanElements><EPOCH>2024-12-27T13:30:31.497984</EPOCH><MEAN_MOTION>13.17649061</MEAN_MOTION><ECCENTRICITY>.0001777</ECCENTRICITY><INCLINATION>87.9105</INCLINATION><RA_OF_ASC_NODE>112.7979</RA_OF_ASC_NODE><ARG_OF_PERICENTER>101.9387</ARG_OF_PERICENTER><MEAN_ANOMALY>258.1944</MEAN_ANOMALY></meanElements><tleParameters><EPHEMERIS_TYPE>0</EPHEMERIS_TYPE><CLASSIFICATION_TYPE>U</CLASSIFICATION_TYPE><NORAD_CAT_ID>55173</NORAD_CAT_ID><ELEMENT_SET_NO>999</ELEMENT_SET_NO><REV_AT_EPOCH>9691</REV_AT_EPOCH><BSTAR>.91085E-4</BSTAR><MEAN_MOTION_DOT>.48E-6</MEAN_MOTION_DOT><MEAN_MOTION_DDOT>0</MEAN_MOTION_DDOT></tleParameters></data></segment></body></omm>
<omm id="CCSDS_OMM_VERS" version="2.0">
<header><CREATION_DATE/><ORIGINATOR/></header><body><segment><metadata><OBJECT_NAME>ONEWEB-0711</OBJECT_NAME><OBJECT_ID>2023-004AL</OBJECT_ID><CENTER_NAME>EARTH</CENTER_NAME><REF_FRAME>TEME</REF_FRAME><TIME_SYSTEM>UTC</TIME_SYSTEM><MEAN_ELEMENT_THEORY>SGP4</MEAN_ELEMENT_THEORY></metadata><data><meanElements><EPOCH>2024-12-27T13:55:41.630880</EPOCH><MEAN_MOTION>13.11417734</MEAN_MOTION><ECCENTRICITY>.0002405</ECCENTRICITY><INCLINATION>87.8903</INCLINATION><RA_OF_ASC_NODE>128.0045</RA_OF_ASC_NODE><ARG_OF_PERICENTER>94.2494</ARG_OF_PERICENTER><MEAN_ANOMALY>265.8909</MEAN_ANOMALY></meanElements><tleParameters><EPHEMERIS_TYPE>0</EPHEMERIS_TYPE><CLASSIFICATION_TYPE>U</CLASSIFICATION_TYPE><NORAD_CAT_ID>55174</NORAD_CAT_ID><ELEMENT_SET_NO>999</ELEMENT_SET_NO><REV_AT_EPOCH>9550</REV_AT_EPOCH><BSTAR>.17002E-2</BSTAR><MEAN_MOTION_DOT>.615E-5</MEAN_MOTION_DOT><MEAN_MOTION_DDOT>0</MEAN_MOTION_DDOT></tleParameters></data></segment></body></omm>
<omm id="CCSDS_OMM_VERS" version="2.0">
<header><CREATION_DATE/><ORIGINATOR/></header><body><segment><metadata><OBJECT_NAME>ONEWEB-0713</OBJECT_NAME><OBJECT_ID>2023-004AM</OBJECT_ID><CENTER_NAME>EARTH</CENTER_NAME><REF_FRAME>TEME</REF_FRAME><TIME_SYSTEM>UTC</TIME_SYSTEM><MEAN_ELEMENT_THEORY>SGP4</MEAN_ELEMENT_THEORY></metadata><data><meanElements><EPOCH>2024-12-27T14:22:30.844704</EPOCH><MEAN_MOTION>13.11417405</MEAN_MOTION><ECCENTRICITY>.0001837</ECCENTRICITY><INCLINATION>87.8903</INCLINATION><RA_OF_ASC_NODE>128.0088</RA_OF_ASC_NODE><ARG_OF_PERICENTER>97.9361</ARG_OF_PERICENTER><MEAN_ANOMALY>262.1976</MEAN_ANOMALY></meanElements><tleParameters><EPHEMERIS_TYPE>0</EPHEMERIS_TYPE><CLASSIFICATION_TYPE>U</CLASSIFICATION_TYPE><NORAD_CAT_ID>55175</NORAD_CAT_ID><ELEMENT_SET_NO>999</ELEMENT_SET_NO><REV_AT_EPOCH>9549</REV_AT_EPOCH><BSTAR>-.18929E-3</BSTAR><MEAN_MOTION_DOT>-.54E-6</MEAN_MOTION_DOT><MEAN_MOTION_DDOT>0</MEAN_MOTION_DDOT></tleParameters></data></segment></body></omm>
<omm id="CCSDS_OMM_VERS" version="2.0">
<header><CREATION_DATE/><ORIGINATOR/></header><body><segment><metadata><OBJECT_NAME>ONEWEB-0715</OBJECT_NAME><OBJECT_ID>2023-004AN</OBJECT_ID><CENTER_NAME>EARTH</CENTER_NAME><REF_FRAME>TEME</REF_FRAME><TIME_SYSTEM>UTC</TIME_SYSTEM><MEAN_ELEMENT_THEORY>SGP4</MEAN_ELEMENT_THEORY></metadata><data><meanElements><EPOCH>2024-12-27T14:15:11.683008</EPOCH><MEAN_MOTION>13.11417082</MEAN_MOTION><ECCENTRICITY>.0001785</ECCENTRICITY><INCLINATION>87.8903</INCLINATION><RA_OF_ASC_NODE>128.0101</RA_OF_ASC_NODE><ARG_OF_PERICENTER>115.3804</ARG_OF_PERICENTER><MEAN_ANOMALY>244.7509</MEAN_ANOMALY></meanElements><tleParameters><EPHEMERIS_TYPE>0</EPHEMERIS_TYPE><CLASSIFICATION_TYPE>U</CLASSIFICATION_TYPE><NORAD_CAT_ID>55176</NORAD_CAT_ID><ELEMENT_SET_NO>999</ELEMENT_SET_NO><REV_AT_EPOCH>9553</REV_AT_EPOCH><BSTAR>.38029E-3</BSTAR><MEAN_MOTION_DOT>.147E-5</MEAN_MOTION_DOT><MEAN_MOTION_DDOT>0</MEAN_MOTION_DDOT></tleParameters></data></segment></body></omm>

</ndm>
