ONEWEB-0628             
1 55169U 23004AF  24362.31319604 -.00000164  00000+0 -49054-3 0  9996
2 55169  87.8888  97.5448 0002312  91.0158 269.1236 13.12446424 97617
ONEWEB-0629             
1 55170U 23004AG  24362.54853300  .00000072  00000+0  15187-3 0  9995
2 55170  87.9104 112.7770 0001641  88.9567 271.1752 13.17651051 96919
ONEWEB-0631             
1 55171U 23004AH  24362.50240995  .00000025  00000+0  30994-4 0  9994
2 55171  87.9114  82.2025 0002240 115.4878 244.6486 13.18684994 98949
ONEWEB-0709             
1 55172U 23004AJ  24362.60915205 -.00000408  00000+0 -11857-2 0  9991
2 55172  87.8903 128.0302 0001850 136.4180 223.7094 13.11416090 95546
ONEWEB-0710             
1 55173U 23004AK  24362.56286456  .00000048  00000+0  91085-4 0  9997
2 55173  87.9105 112.7979 0001777 101.9387 258.1944 13.17649061 96916
ONEWEB-0711             
1 55174U 23004AL  24362.58034295  .00000615  00000+0  17002-2 0  9997
2 55174  87.8903 128.0045 0002405  94.2494 265.8909 13.11417734 95502
ONEWEB-0713             
1 55175U 23004AM  24362.59896811 -.00000054  00000+0 -18929-3 0  9998
2 55175  87.8903 128.0088 0001837  97.9361 262.1976 13.11417405 95498
ONEWEB-0715             
1 55176U 23004AN  24362.59388522  .00000147  00000+0  38029-3 0  9998
2 55176  87.8903 128.0101 0001785 115.3804 244.7509 13.11417082 95538
